[{"OBJECT_NAME":"STARLINK-30587","OBJECT_ID":"2023-158P","EPOCH":"2026-03-09T07:13:29.484480","MEAN_MOTION":15.27574217,"ECCENTRICITY":6.019e-5,"INCLINATION":43.0018,"RA_OF_ASC_NODE":28.9739,"ARG_OF_PERICENTER":248.2476,"MEAN_ANOMALY":111.8312,"EPHEMERIS_TYPE":0,"CLASSIFICATION_TYPE":"U","NORAD_CAT_ID":58064,"ELEMENT_SET_NO":999,"REV_AT_EPOCH":13351,"BSTAR":-2.8926457e-5,"MEAN_MOTION_DOT":-1.058e-5,"MEAN_MOTION_DDOT":0},{"OBJECT_NAME":"SIMSAT 2","OBJECT_ID":"2000-026B","EPOCH":"2026-03-09T20:25:01.673184","MEAN_MOTION":15.29036787,"ECCENTRICITY":0.00037035,"INCLINATION":86.3514,"RA_OF_ASC_NODE":176.4271,"ARG_OF_PERICENTER":287.9875,"MEAN_ANOMALY":72.0969,"EPHEMERIS_TYPE":0,"CLASSIFICATION_TYPE":"U","NORAD_CAT_ID":26366,"ELEMENT_SET_NO":999,"REV_AT_EPOCH":42803,"BSTAR":0.00013465771,"MEAN_MOTION_DOT":3.833e-5,"MEAN_MOTION_DDOT":0}]
